[{"OBJECT_NAME":"STARLINK-5185","OBJECT_ID":"2022-136BB","EPOCH":"2026-03-09T22:11:49.403904","MEAN_MOTION":15.08834688,"ECCENTRICITY":0.00014497,"INCLINATION":53.2191,"RA_OF_ASC_NODE":332.7736,"ARG_OF_PERICENTER":104.6519,"MEAN_ANOMALY":255.4634,"EPHEMERIS_TYPE":0,"CLASSIFICATION_TYPE":"U","NORAD_CAT_ID":54100,"ELEMENT_SET_NO":999,"REV_AT_EPOCH":18702,"BSTAR":6.6625315e-5,"MEAN_MOTION_DOT":7.72e-6,"MEAN_MOTION_DDOT":0},{"OBJECT_NAME":"NOAA 17 DEB","OBJECT_ID":"2002-032BW","EPOCH":"2026-03-08T22:40:23.580768","MEAN_MOTION":15.05196658,"ECCENTRICITY":0.00149213,"INCLINATION":98.7181,"RA_OF_ASC_NODE":121.0481,"ARG_OF_PERICENTER":217.4424,"MEAN_ANOMALY":142.5761,"EPHEMERIS_TYPE":0,"CLASSIFICATION_TYPE":"U","NORAD_CAT_ID":48737,"ELEMENT_SET_NO":999,"REV_AT_EPOCH":26108,"BSTAR":0.0055556624,"MEAN_MOTION_DOT":0.00080221,"MEAN_MOTION_DDOT":0}]
